[{"OBJECT_NAME":"ONEWEB-0206","OBJECT_ID":"2021-031T","EPOCH":"2026-03-09T16:49:23.834784","MEAN_MOTION":13.14502994,"ECCENTRICITY":0.00014995,"INCLINATION":87.8995,"RA_OF_ASC_NODE":309.5445,"ARG_OF_PERICENTER":89.8947,"MEAN_ANOMALY":270.2355,"EPHEMERIS_TYPE":0,"CLASSIFICATION_TYPE":"U","NORAD_CAT_ID":48227,"ELEMENT_SET_NO":999,"REV_AT_EPOCH":23515,"BSTAR":-0.0004749739,"MEAN_MOTION_DOT":-1.63e-6,"MEAN_MOTION_DDOT":0},{"OBJECT_NAME":"METEOR 3-1","OBJECT_ID":"1985-100A","EPOCH":"2026-03-09T15:52:13.980288","MEAN_MOTION":13.1731561,"ECCENTRICITY":0.0018691,"INCLINATION":82.5446,"RA_OF_ASC_NODE":106.3991,"ARG_OF_PERICENTER":244.557,"MEAN_ANOMALY":235.8257,"EPHEMERIS_TYPE":0,"CLASSIFICATION_TYPE":"U","NORAD_CAT_ID":16191,"ELEMENT_SET_NO":999,"REV_AT_EPOCH":94123,"BSTAR":0.00029887,"MEAN_MOTION_DOT":1.28e-6,"MEAN_MOTION_DDOT":0}]
